TEVEL2-9                
1 63237U 25052AD  26068.70229538  .00018694  00000+0  67240-3 0  9992
2 63237  97.4057 324.3929 0007990 124.2475 235.9522 15.28633834 54816
STARLINK-34192          
1 64014U 25101W   26068.18424442  .00024880  00000+0  91102-3 0  9992
2 64014  42.9995   1.1861 0000882 275.0953  84.9798 15.27565149 46977
